[{"OBJECT_NAME":"THE ARAB SATELLITE 813","OBJECT_ID":"2025-292B","EPOCH":"2026-03-09T21:37:26.354208","MEAN_MOTION":15.05594469,"ECCENTRICITY":0.00142186,"INCLINATION":97.6379,"RA_OF_ASC_NODE":145.6178,"ARG_OF_PERICENTER":341.4344,"MEAN_ANOMALY":18.6363,"EPHEMERIS_TYPE":0,"CLASSIFICATION_TYPE":"U","NORAD_CAT_ID":66994,"ELEMENT_SET_NO":999,"REV_AT_EPOCH":1350,"BSTAR":0.00043840303,"MEAN_MOTION_DOT":6.274e-5,"MEAN_MOTION_DDOT":0},{"OBJECT_NAME":"DELTA 2 R\/B(1)","OBJECT_ID":"1992-089B","EPOCH":"2026-03-09T21:18:04.780512","MEAN_MOTION":14.95843552,"ECCENTRICITY":0.00502643,"INCLINATION":20.2848,"RA_OF_ASC_NODE":268.5776,"ARG_OF_PERICENTER":187.692,"MEAN_ANOMALY":172.2737,"EPHEMERIS_TYPE":0,"CLASSIFICATION_TYPE":"U","NORAD_CAT_ID":22276,"ELEMENT_SET_NO":999,"REV_AT_EPOCH":77681,"BSTAR":0.00031307363,"MEAN_MOTION_DOT":4.132e-5,"MEAN_MOTION_DDOT":0}]
